{
  "type": "FeatureCollection",
  "features": [
    {
      "type": "Feature",
      "properties": {},
      "geometry": {
        "type": "Polygon",
        "coordinates": [
          [
            [
              -86.2405003,
              43.0524605
            ],
            [
              -86.2396915,
              43.0515493
            ],
            [
              -86.2400622,
              43.0508351
            ],
            [
              -86.2400959,
              43.0499731
            ],
            [
              -86.2390848,
              43.048717
            ],
            [
              -86.2380738,
              43.0486924
            ],
            [
              -86.2364897,
              43.0481013
            ],
            [
              -86.2360516,
              43.0477565
            ],
            [
              -86.2353776,
              43.0479043
            ],
            [
              -86.2350068,
              43.0495051
            ],
            [
              -86.2350068,
              43.0498992
            ],
            [
              -86.2327151,
              43.0498746
            ],
            [
              -86.2316366,
              43.0499977
            ],
            [
              -86.2324455,
              43.0516478
            ],
            [
              -86.2303222,
              43.0516724
            ],
            [
              -86.2303896,
              43.0526083
            ],
            [
              -86.2277608,
              43.0525344
            ],
            [
              -86.2278282,
              43.0534948
            ],
            [
              -86.2277945,
              43.0545292
            ],
            [
              -86.2287719,
              43.0545784
            ],
            [
              -86.2299852,
              43.0551448
            ],
            [
              -86.2314007,
              43.0551941
            ],
            [
              -86.2323781,
              43.0549971
            ],
            [
              -86.232951,
              43.0553172
            ],
            [
              -86.2333554,
              43.0551448
            ],
            [
              -86.2349057,
              43.0549724
            ],
            [
              -86.2405003,
              43.0524605
            ]
          ]
        ]
      }
    }
  ]
}