{"type":"FeatureCollection","features":[{"type":"Feature","properties":{},"geometry":{"coordinates":[[[-86.23371318379765,43.055207704590345],[-86.23368772774869,43.05708634028767],[-86.23597877211243,43.05816513477242],[-86.23760795921532,43.05844413025716],[-86.23791343179643,43.0575885400815],[-86.23987354752941,43.0570305400567],[-86.24399742738348,43.05349642198442],[-86.2428009931051,43.05291978339355],[-86.24351376246246,43.05180369329889],[-86.24221550398967,43.05159907457872],[-86.24277553705683,43.05120843694385],[-86.24076450922668,43.04912499420422],[-86.23656425599584,43.04797163311363],[-86.2356732942986,43.04812045559771],[-86.2352914535713,43.049571455892675],[-86.23198216726907,43.05003651282638],[-86.232491288239,43.051524671317026],[-86.23032558878248,43.051860923177145],[-86.23014739644331,43.05280960016722],[-86.22818728071034,43.05280960016722],[-86.22902733030969,43.0544278976343],[-86.2299946601524,43.054967320634006],[-86.23124200652799,43.0548185147631],[-86.2328457375819,43.05493011919998],[-86.23371318379765,43.055207704590345]]],"type":"Polygon"}}]}