{
  "type": "FeatureCollection",
  "features": [
    {
      "type": "Feature",
      "properties": {},
      "geometry": {
        "type": "Polygon",
        "coordinates": [
          [
            [
              -86.2392052,
              43.0600666
            ],
            [
              -86.2401011,
              43.0601593
            ],
            [
              -86.2404024,
              43.0605358
            ],
            [
              -86.2414648,
              43.0601014
            ],
            [
              -86.2415996,
              43.0601535
            ],
            [
              -86.246309,
              43.0584273
            ],
            [
              -86.2454844,
              43.0579465
            ],
            [
              -86.2446599,
              43.0585779
            ],
            [
              -86.2435817,
              43.0590703
            ],
            [
              -86.2412824,
              43.0598175
            ],
            [
              -86.2391815,
              43.0598523
            ],
            [
              -86.2392052,
              43.0600666
            ]
          ]
        ]
      }
    }
  ]
}