{"type":"FeatureCollection","features":[{"type":"Feature","properties":{},"geometry":{"coordinates":[[[-89.13684579602658,46.41243463644412],[-89.13681074649561,46.40511204912133],[-89.13365628868085,46.40508788053913],[-89.13411193258769,46.405982110956614],[-89.13407688305622,46.40670715188554],[-89.13372638774325,46.40733551289517],[-89.13320064477455,46.40745635072136],[-89.1330954961807,46.40868888125502],[-89.13148321774213,46.40876138218388],[-89.13162341586691,46.40960721923341],[-89.12629588711393,46.409558886040855],[-89.12626083758244,46.41238630575711],[-89.13684579602658,46.41243463644412]]],"type":"Polygon"}},{"type":"Feature","properties":{},"geometry":{"coordinates":[[[-86.04609485733586,43.02225755643545],[-86.04623086133107,43.01624361699572],[-86.036910887984,43.0160002452736],[-86.0352466070291,43.00869864510011],[-86.0289223394004,43.00882034554991],[-86.02875591130464,43.00468239499014],[-86.02576020558573,43.004317268322836],[-86.02559377749056,43.001274461701286],[-86.00895096794162,43.001396176859856],[-86.00861811175075,43.00297845197633],[-86.00495669364952,43.00249160243436],[-86.00429098126779,42.99774461721947],[-86.00013027888053,42.997622894827174],[-86.00013027888053,42.99579703001095],[-85.99280744267922,42.99628393260022],[-85.99264101458351,43.004317268322836],[-85.99014459315116,43.004317268322836],[-85.98981173696029,43.001396176859856],[-85.98032533551749,43.001396176859856],[-85.97982605123092,43.00297845197633],[-85.9763310612254,43.00285673995239],[-85.97649748932112,43.00577776197133],[-85.97033964978812,43.008211840890624],[-85.97083893407411,43.013079709373386],[-85.98615031885964,43.00955054318345],[-86.00279312840861,43.00516922717097],[-86.02626129625274,43.02297360621645],[-86.0413201111489,43.02297360621645],[-86.04119768175978,43.022168049625094],[-86.04609485733586,43.02225755643545]]],"type":"Polygon"}}]}