{
  "type": "FeatureCollection",
  "features": [
    {
      "type": "Feature",
      "properties": {},
      "geometry": {
        "type": "Polygon",
        "coordinates": [
          [
            [
              -86.2350176,
              43.0548564
            ],
            [
              -86.2352976,
              43.0559305
            ],
            [
              -86.2337343,
              43.0561351
            ],
            [
              -86.2339443,
              43.0576354
            ],
            [
              -86.2352976,
              43.0577036
            ],
            [
              -86.2353209,
              43.0594936
            ],
            [
              -86.2387042,
              43.0594254
            ],
            [
              -86.2428807,
              43.0593061
            ],
            [
              -86.244374,
              43.0586242
            ],
            [
              -86.2458439,
              43.0574137
            ],
            [
              -86.2454006,
              43.0569534
            ],
            [
              -86.2455873,
              43.0562885
            ],
            [
              -86.244234,
              43.0533731
            ],
            [
              -86.243814,
              43.052981
            ],
            [
              -86.2428807,
              43.0527934
            ],
            [
              -86.242694,
              43.0527764
            ],
            [
              -86.2415507,
              43.0535607
            ],
            [
              -86.2410141,
              43.0534925
            ],
            [
              -86.2403374,
              43.0522308
            ],
            [
              -86.2349476,
              43.0546689
            ],
            [
              -86.2350176,
              43.0548564
            ]
          ]
        ]
      }
    }
  ]
}