{
  "type": "FeatureCollection",
  "features": [
    {
      "type": "Feature",
      "properties": {},
      "geometry": {
        "type": "Polygon",
        "coordinates": [
          [
            [
              -86.2189681,
              43.0749897
            ],
            [
              -86.2194885,
              43.0744829
            ],
            [
              -86.2197379,
              43.073691
            ],
            [
              -86.2199547,
              43.0705231
            ],
            [
              -86.2194343,
              43.0704677
            ],
            [
              -86.2193367,
              43.0707686
            ],
            [
              -86.2185236,
              43.0708716
            ],
            [
              -86.2177431,
              43.0727961
            ],
            [
              -86.21706,
              43.0733583
            ],
            [
              -86.2174612,
              43.0737147
            ],
            [
              -86.217678,
              43.0743958
            ],
            [
              -86.2183068,
              43.0747917
            ],
            [
              -86.2189681,
              43.0749897
            ]
          ]
        ]
      }
    }
  ]
}