
{
  "type": "FeatureCollection",
  "features": [
    {
      "type": "Feature",
      "properties": {},
      "geometry": {
        "type": "Polygon",
        "coordinates": [
          [
            [
              -86.2352011,
              43.0681393
            ],
            [
              -86.2354071,
              43.069253
            ],
            [
              -86.2352835,
              43.0699302
            ],
            [
              -86.2355925,
              43.0701409
            ],
            [
              -86.2353659,
              43.0703817
            ],
            [
              -86.2354689,
              43.0710589
            ],
            [
              -86.2352011,
              43.072624
            ],
            [
              -86.2342122,
              43.0738429
            ],
            [
              -86.2306277,
              43.0752273
            ],
            [
              -86.2295358,
              43.07607
            ],
            [
              -86.2287736,
              43.0761904
            ],
            [
              -86.2283616,
              43.0760851
            ],
            [
              -86.2273933,
              43.0768676
            ],
            [
              -86.2264663,
              43.0769428
            ],
            [
              -86.2252715,
              43.0769127
            ],
            [
              -86.2245916,
              43.0768074
            ],
            [
              -86.223953,
              43.0765666
            ],
            [
              -86.2232114,
              43.0756788
            ],
            [
              -86.2233968,
              43.0753929
            ],
            [
              -86.2225933,
              43.0749414
            ],
            [
              -86.2217281,
              43.0754079
            ],
            [
              -86.2208423,
              43.0755584
            ],
            [
              -86.2205127,
              43.0754079
            ],
            [
              -86.2198122,
              43.0753929
            ],
            [
              -86.2229848,
              43.0714201
            ],
            [
              -86.22008,
              43.070788
            ],
            [
              -86.220286,
              43.0702011
            ],
            [
              -86.2212543,
              43.0703365
            ],
            [
              -86.2217075,
              43.0705322
            ],
            [
              -86.224365,
              43.0710589
            ],
            [
              -86.2250861,
              43.0713147
            ],
            [
              -86.2253333,
              43.0710739
            ],
            [
              -86.2253333,
              43.0706526
            ],
            [
              -86.2257247,
              43.0704419
            ],
            [
              -86.2266311,
              43.0701258
            ],
            [
              -86.2316577,
              43.0685607
            ],
            [
              -86.2328732,
              43.068034
            ],
            [
              -86.2341092,
              43.0676577
            ],
            [
              -86.2350981,
              43.0679286
            ],
            [
              -86.2352011,
              43.0681393
            ]
          ]
        ]
      }
    }
  ]
}