{"type":"FeatureCollection","features":[{"type":"Feature","properties":{},"geometry":{"coordinates":[[[-86.20145977981944,42.78340018942666],[-86.20145977981944,42.78251501416514],[-86.20608773319347,42.782391500331755],[-86.20597554038463,42.77815070925925],[-86.20347925038278,42.77784190244827],[-86.20294633453945,42.77633902064744],[-86.20258170791014,42.77631843297186],[-86.20244146689892,42.776565484622296],[-86.2020487920672,42.77644195892029],[-86.20165611723512,42.77660665980173],[-86.20134758701023,42.777038997530894],[-86.20047809274,42.77681253528715],[-86.19963664667218,42.77817129632561],[-86.19876715240194,42.77796542535711],[-86.19820618835658,42.778974186560674],[-86.19756107970443,42.77924181432613],[-86.19739279049078,42.779447681050385],[-86.19660744082698,42.77996234486676],[-86.1966354890294,42.782473842915095],[-86.1978135135245,42.78243267163717],[-86.19924397184047,42.78204154313272],[-86.20025370712193,42.78136220880464],[-86.20028175532434,42.783379604099366],[-86.20145977981944,42.78340018942666]]],"type":"Polygon"}}]}