{
  "type": "FeatureCollection",
  "features": [
    {
      "type": "Feature",
      "properties": {},
      "geometry": {
        "type": "Polygon",
        "coordinates": [
          [
            [
              -86.202202,
              43.0623164
            ],
            [
              -86.2015871,
              43.0616756
            ],
            [
              -86.2016685,
              43.0615765
            ],
            [
              -86.2020844,
              43.0616029
            ],
            [
              -86.2020935,
              43.0615368
            ],
            [
              -86.2013248,
              43.0614509
            ],
            [
              -86.2010264,
              43.0612725
            ],
            [
              -86.2011078,
              43.0604334
            ],
            [
              -86.2054303,
              43.0603277
            ],
            [
              -86.2054122,
              43.0614113
            ],
            [
              -86.2045893,
              43.061484
            ],
            [
              -86.2045803,
              43.0615963
            ],
            [
              -86.2037122,
              43.0616029
            ],
            [
              -86.2037302,
              43.061735
            ],
            [
              -86.2028712,
              43.0617681
            ],
            [
              -86.2028802,
              43.0622834
            ],
            [
              -86.202202,
              43.0623164
            ]
          ]
        ]
      }
    }
  ]
}