{
  "type": "FeatureCollection",
  "features": [
    {
      "type": "Feature",
      "properties": {},
      "geometry": {
        "type": "Polygon",
        "coordinates": [
          [
            [
              -86.2864536,
              43.1435737
            ],
            [
              -86.2752567,
              43.1436826
            ],
            [
              -86.2649555,
              43.1330065
            ],
            [
              -86.2524149,
              43.1328976
            ],
            [
              -86.2510712,
              43.1130655
            ],
            [
              -86.25555,
              43.1130655
            ],
            [
              -86.254505,
              43.1027111
            ],
            [
              -86.2654033,
              43.1022751
            ],
            [
              -86.2864536,
              43.1435737
            ]
          ]
        ]
      }
    }
  ]
}