{
  "type": "FeatureCollection",
  "features": [
    {
      "type": "Feature",
      "properties": {},
      "geometry": {
        "type": "Polygon",
        "coordinates": [
          [
            [
              -85.5165522,
              42.6514128
            ],
            [
              -85.5164184,
              42.6453095
            ],
            [
              -85.5121356,
              42.6420607
            ],
            [
              -85.5110649,
              42.6315257
            ],
            [
              -85.5198981,
              42.6313288
            ],
            [
              -85.5212365,
              42.6243372
            ],
            [
              -85.5260546,
              42.6241403
            ],
            [
              -85.5256531,
              42.6177388
            ],
            [
              -85.5248501,
              42.6014861
            ],
            [
              -85.5249839,
              42.5997129
            ],
            [
              -85.4954061,
              42.5845394
            ],
            [
              -85.4852345,
              42.5840467
            ],
            [
              -85.468505,
              42.5950824
            ],
            [
              -85.4488311,
              42.6164585
            ],
            [
              -85.446422,
              42.6243372
            ],
            [
              -85.4469574,
              42.6280793
            ],
            [
              -85.4714494,
              42.6277839
            ],
            [
              -85.4713156,
              42.6386149
            ],
            [
              -85.4931309,
              42.6389103
            ],
            [
              -85.4931309,
              42.6515112
            ],
            [
              -85.5165522,
              42.6514128
            ]
          ]
        ]
      }
    }
  ]
}