{
  "type": "FeatureCollection",
  "features": [
    {
      "type": "Feature",
      "properties": {},
      "geometry": {
        "type": "Polygon",
        "coordinates": [
          [
            [
              -85.893291,
              42.971855
            ],
            [
              -85.894022,
              42.9543649
            ],
            [
              -85.8835059,
              42.9553939
            ],
            [
              -85.886149,
              42.9720607
            ],
            [
              -85.893291,
              42.971855
            ]
          ]
        ]
      }
    }
  ]
}